NORAD_CAT_ID,OBJECT_NAME,OBJECT_TYPE,EPOCH,MEAN_MOTION,ECCENTRICITY,INCLINATION,RA_OF_ASC_NODE,ARG_OF_PERICENTER,MEAN_ANOMALY,BSTAR,MEAN_MOTION_DOT,MEAN_MOTION_DDOT,TLE_LINE0,TLE_LINE1,TLE_LINE2,SEMIMAJOR_AXIS,PERIOD,APOGEE,PERIGEE,DECAYED
51740.0,STARLINK-3500,PAYLOAD,2023-02-17 02:05:51,15.08846142,0.0001149,53.2152,291.7442,79.7201,280.392,0.00021775,3.18e-05,0.0,0 STARLINK-3500,1 51740U 22016AC  23048.08740033  .00003180  00000-0  21775-3 0  9997,2 51740  53.2152 291.7442 0001149  79.7201 280.3920 15.08846142 54997,6917.862,95.437,540.521,538.932,0.0
51740.0,STARLINK-3500,PAYLOAD,2023-02-17 17:59:43,15.08823122,0.0001161,53.2152,288.7727,63.8283,296.2828,1.2851e-05,-8.3e-07,0.0,0 STARLINK-3500,1 51740U 22016AC  23048.74981063 -.00000083  00000-0  12851-4 0  9996,2 51740  53.2152 288.7727 0001161  63.8283 296.2828 15.08823122 56153,6917.932,95.439,540.6,538.994,0.0
51740.0,STARLINK-3500,PAYLOAD,2023-02-17 21:10:29,15.08824946,0.0001285,53.2154,288.1788,72.2971,287.8161,0.00015852,2.235e-05,0.0,0 STARLINK-3500,1 51740U 22016AC  23048.88229159  .00002235  00000-0  15852-3 0  9995,2 51740  53.2154 288.1788 0001285  72.2971 287.8161 15.08824946 55117,6917.926,95.439,540.68,538.902,0.0
51740.0,STARLINK-3500,PAYLOAD,2023-02-18 08:18:12,15.08835396,0.0001408,53.2155,286.0952,71.1822,288.9322,0.0004777,7.322e-05,0.0,0 STARLINK-3500,1 51740U 22016AC  23049.34597414  .00007322  00000-0  47770-3 0  9995,2 51740  53.2155 286.0952 0001408  71.1822 288.9322 15.08835396 56245,6917.894,95.438,540.734,538.785,0.0
51740.0,STARLINK-3500,PAYLOAD,2023-02-18 14:39:44,15.08839974,0.0001244,53.2153,284.9065,79.373,280.7402,0.00043836,6.695e-05,0.0,0 STARLINK-3500,1 51740U 22016AC  23049.61093373  .00006695  00000-0  43836-3 0  9991,2 51740  53.2153 284.9065 0001244  79.3730 280.7402 15.08839974 55223,6917.88,95.438,540.606,538.885,0.0
51740.0,STARLINK-3500,PAYLOAD,2023-02-18 22:36:40,15.08852966,0.0001283,53.2154,283.4207,81.5779,278.5359,0.00071998,0.00011193,0.0,0 STARLINK-3500,1 51740U 22016AC  23049.94213097  .00011193  00000-0  71998-3 0  9993,2 51740  53.2154 283.4207 0001283  81.5779 278.5359 15.08852966 56332,6917.841,95.437,540.593,538.818,0.0
51740.0,STARLINK-3500,PAYLOAD,2023-02-19 14:30:31,15.08848752,0.0001288,53.215,280.4478,82.4936,277.6203,0.00011678,1.572e-05,0.0,0 STARLINK-3500,1 51740U 22016AC  23050.60452738  .00001572  00000-0  11678-3 0  9994,2 51740  53.2150 280.4478 0001288  82.4936 277.6203 15.08848752 55374,6917.854,95.437,540.61,538.828,0.0
51740.0,STARLINK-3500,PAYLOAD,2023-02-19 16:05:54,15.08845446,0.0001274,53.2153,280.1502,82.0268,278.0869,0.00017507,2.5e-05,0.0,0 STARLINK-3500,1 51740U 22016AC  23050.67076909  .00002500  00000-0  17507-3 0  9992,2 51740  53.2153 280.1502 0001274  82.0268 278.0869 15.08845446 56440,6917.864,95.437,540.61,538.847,0.0
51740.0,STARLINK-3500,PAYLOAD,2023-02-20 07:59:45,15.08843922,0.0001182,53.2144,277.1762,84.014,276.0987,4.8591e-05,4.86e-06,0.0,0 STARLINK-3500,1 51740U 22016AC  23051.33316605  .00000486  00000-0  48591-4 0  9995,2 51740  53.2144 277.1762 0001182  84.0140 276.0987 15.08843922 55482,6917.868,95.437,540.551,538.916,0.0
51740.0,STARLINK-3500,PAYLOAD,2023-02-20 23:53:36,15.08846914,0.0001327,53.2152,274.2004,83.3457,276.7686,4.8061e-05,4.77e-06,0.0,0 STARLINK-3500,1 51740U 22016AC  23051.99556481  .00000477  00000-0  48061-4 0  9997,2 51740  53.2152 274.2004 0001327  83.3457 276.7686 15.08846914 56648,6917.859,95.437,540.642,538.806,0.0
51740.0,STARLINK-3500,PAYLOAD,2023-02-21 14:12:04,15.08846414,0.0001151,53.2144,271.525,81.4604,278.6518,0.00014964,2.095e-05,0.0,0 STARLINK-3500,1 51740U 22016AC  23052.59172289  .00002095  00000-0  14964-3 0  9996,2 51740  53.2144 271.5250 0001151  81.4604 278.6518 15.08846414 55672,6917.861,95.437,540.522,538.93,0.0
51740.0,STARLINK-3500,PAYLOAD,2023-02-21 20:33:37,15.08849252,0.000116,53.2137,270.3354,80.0405,280.0718,0.00018505,2.659e-05,0.0,0 STARLINK-3500,1 51740U 22016AC  23052.85668140  .00002659  00000-0  18505-3 0  9992,2 51740  53.2137 270.3354 0001160  80.0405 280.0718 15.08849252 55717,6917.852,95.437,540.52,538.915,0.0
51740.0,STARLINK-3500,PAYLOAD,2023-02-22 14:02:53,15.08818537,0.000126,53.2152,267.0633,85.9221,274.1915,-0.00017878,-3.13e-05,0.0,0 STARLINK-3500,1 51740U 22016AC  23053.58534191 -.00003130  00000-0 -17878-3 0  9990,2 51740  53.2152 267.0633 0001260  85.9221 274.1915 15.08818537 55825,6917.946,95.439,540.683,538.939,0.0
51740.0,STARLINK-3500,PAYLOAD,2023-02-22 20:24:26,15.08821085,0.0001068,53.2143,265.875,82.7629,277.3484,-6.4937e-05,-1.321e-05,0.0,0 STARLINK-3500,1 51740U 22016AC  23053.85030345 -.00001321  00000-0 -64937-4 0  9991,2 51740  53.2143 265.8750 0001068  82.7629 277.3484 15.08821085 55866,6917.938,95.439,540.542,539.064,0.0
51740.0,STARLINK-3500,PAYLOAD,2023-02-23 01:10:35,15.08824096,0.0001083,53.2135,264.9825,79.4276,280.6838,-3.9068e-05,-9.09e-06,0.0,0 STARLINK-3500,1 51740U 22016AC  23054.04902293 -.00000909  00000-0 -39068-4 0  9991,2 51740  53.2135 264.9825 0001083  79.4276 280.6838 15.08824096 56954,6917.929,95.439,540.543,539.045,0.0
51740.0,STARLINK-3500,PAYLOAD,2023-02-23 13:53:40,15.08837168,1.22e-05,53.2176,262.6014,58.6712,301.4292,0.00041412,6.309e-05,0.0,0 STARLINK-3500,1 51740U 22016AC  23054.57894054  .00006309  00000-0  41412-3 0  9997,2 51740  53.2176 262.6014 0000122  58.6712 301.4292 15.08837168 57031,6917.889,95.438,539.838,539.67,0.0
51740.0,STARLINK-3500,PAYLOAD,2023-02-23 20:15:12,15.08858376,8.92e-05,53.2138,261.4133,58.6884,301.4196,0.0011639,0.00018293,0.0,0 STARLINK-3500,1 51740U 22016AC  23054.84389994  .00018293  00000-0  11639-2 0  9991,2 51740  53.2138 261.4133 0000892  58.6884 301.4196 15.08858376 56016,6917.824,95.436,540.306,539.072,0.0
51740.0,STARLINK-3500,PAYLOAD,2023-02-23 23:25:59,15.08874255,9.95e-05,53.214,260.8196,51.1163,308.9917,0.0016123,0.00025489,0.0,0 STARLINK-3500,1 51740U 22016AC  23054.97637741  .00025489  00000-0  16123-2 0  9999,2 51740  53.2140 260.8196 0000995  51.1163 308.9917 15.08874255 57099,6917.776,95.435,540.329,538.952,0.0
51740.0,STARLINK-3500,PAYLOAD,2023-02-24 13:44:26,15.08869645,9.37e-05,53.214,258.1407,83.2935,276.8164,0.0011618,0.00018265,0.0,0 STARLINK-3500,1 51740U 22016AC  23055.57253172  .00018265  00000-0  11618-2 0  9996,2 51740  53.2140 258.1407 0000937  83.2935 276.8164 15.08869645 56120,6917.79,95.436,540.303,539.007,0.0
51740.0,STARLINK-3500,PAYLOAD,2023-02-24 21:41:22,15.08863562,8.88e-05,53.2145,256.6553,60.9582,299.1499,0.00091429,0.00014302,0.0,0 STARLINK-3500,1 51740U 22016AC  23055.90372834  .00014302  00000-0  91429-3 0  9997,2 51740  53.2145 256.6553 0000888  60.9582 299.1499 15.08863562 56171,6917.808,95.436,540.288,539.059,0.0
51740.0,STARLINK-3500,PAYLOAD,2023-02-24 23:16:45,15.08867216,9.08e-05,53.2145,256.3575,66.0017,294.107,0.00059861,9.259e-05,0.0,0 STARLINK-3500,1 51740U 22016AC  23055.96996667  .00009259  00000-0  59861-3 0  9998,2 51740  53.2145 256.3575 0000908  66.0017 294.1070 15.08867216 57244,6917.797,95.436,540.29,539.034,0.0
51740.0,STARLINK-3500,PAYLOAD,2023-02-25 13:35:13,15.08846273,7.69e-05,53.2145,253.6814,58.9593,301.1475,0.00042982,6.561e-05,0.0,0 STARLINK-3500,1 51740U 22016AC  23056.56612854  .00006561  00000-0  42982-3 0  9997,2 51740  53.2145 253.6814 0000769  58.9593 301.1475 15.08846273 57332,6917.861,95.437,540.258,539.194,0.0
51740.0,STARLINK-3500,PAYLOAD,2023-02-25 19:56:46,15.08846032,8.9e-05,53.2147,252.4918,75.4482,284.6608,0.00047536,7.287e-05,0.0,0 STARLINK-3500,1 51740U 22016AC  23056.83108853  .00007287  00000-0  47536-3 0  9992,2 51740  53.2147 252.4918 0000890  75.4482 284.6608 15.08846032 56315,6917.862,95.437,540.343,539.111,0.0
51740.0,STARLINK-3500,PAYLOAD,2023-02-26 11:50:37,15.08844416,0.0001029,53.2145,249.5184,84.4397,275.6712,0.00019148,2.761e-05,0.0,0 STARLINK-3500,1 51740U 22016AC  23057.49348787  .00002761  00000-0  19148-3 0  9997,2 51740  53.2145 249.5184 0001029  84.4397 275.6712 15.08844416 57473,6917.867,95.437,540.444,539.02,0.0
51740.0,STARLINK-3500,PAYLOAD,2023-02-26 13:26:00,15.08843939,0.0001031,53.2146,249.221,82.45,277.6609,9.4825e-05,1.222e-05,0.0,0 STARLINK-3500,1 51740U 22016AC  23057.55972801  .00001222  00000-0  94825-4 0  9991,2 51740  53.2146 249.2210 0001031  82.4500 277.6609 15.08843939 56428,6917.868,95.437,540.447,539.02,0.0
51740.0,STARLINK-3500,PAYLOAD,2023-02-26 19:47:32,15.0885026,0.0001072,53.2146,248.0317,83.2459,276.8655,0.00019846,2.873e-05,0.0,0 STARLINK-3500,1 51740U 22016AC  23057.82468552  .00002873  00000-0  19846-3 0  9996,2 51740  53.2146 248.0317 0001072  83.2459 276.8655 15.08850260 56461,6917.849,95.437,540.456,538.972,0.0
51740.0,STARLINK-3500,PAYLOAD,2023-02-27 11:41:24,15.08840862,0.0001024,53.2148,245.0583,83.5153,276.5956,0.0001067,1.411e-05,0.0,0 STARLINK-3500,1 51740U 22016AC  23058.48708875  .00001411  00000-0  10670-3 0  9997,2 51740  53.2148 245.0583 0001024  83.5153 276.5956 15.08840862 57623,6917.878,95.438,540.451,539.034,0.0
51740.0,STARLINK-3500,PAYLOAD,2023-02-27 16:27:34,15.08828846,0.0001136,53.2157,244.1661,86.7605,273.3517,0.00012121,1.641e-05,0.0,0 STARLINK-3500,1 51740U 22016AC  23058.68581599  .00001641  00000-0  12121-3 0  9999,2 51740  53.2157 244.1661 0001136  86.7605 273.3517 15.08828846 56592,6917.914,95.438,540.565,538.994,0.0
51740.0,STARLINK-3500,PAYLOAD,2023-02-28 05:10:39,15.08834867,0.0001223,53.215,241.7857,83.1008,277.0123,-2.3211e-05,-6.57e-06,0.0,0 STARLINK-3500,1 51740U 22016AC  23059.21573433 -.00000657  00000-0 -23211-4 0  9998,2 51740  53.2150 241.7857 0001223  83.1008 277.0123 15.08834867 57731,6917.896,95.438,540.607,538.915,0.0
51740.0,STARLINK-3500,PAYLOAD,2023-02-28 13:07:35,15.08837051,0.0001047,53.2139,240.2986,88.3827,271.7285,5.5378e-05,5.94e-06,0.0,0 STARLINK-3500,1 51740U 22016AC  23059.54693347  .00000594  00000-0  55378-4 0  9998,2 51740  53.2139 240.2986 0001047  88.3827 271.7285 15.08837051 56721,6917.889,95.438,540.479,539.03,0.0
